GAOFEN-5 01             
1 43461U 18043A   25024.78367174  .00001483  00000+0  31999-3 0  9999
2 43461  98.3868 343.1253 0001375 169.4912 190.6316 14.59875627357499
GAOFEN-6                
1 43484U 18048A   25024.90025360  .00001989  00000+0  29200-3 0  9994
2 43484  97.8408  99.2305 0013294  23.1963 336.9845 14.76537944358387
GAOFEN-11 01            
1 43585U 18063A   25024.86670047  .00019995  00000+0  52030-3 0  9999
2 43585  97.2022  91.9703 0007982  43.8024 316.3854 15.38903427361759
ICESAT-2                
1 43613U 18070A   25024.90802582  .00017777  00000+0  64759-3 0  9992
2 43613  91.9984 154.2618 0003662   4.7244 355.4039 15.28141009354837
HYSIS                   
1 43719U 18096A   25024.93612191  .00002729  11810-8  37194-3 0  9999
2 43719  97.8387  89.5278 0000914  17.9050 342.2194 14.78771182332316
KAZSTSAT                
1 43783U 18099AB  25024.86267770  .00003094  00000+0  26660-3 0  9996
2 43783  97.4962  73.3451 0006089 323.3901  36.6905 14.98016975335157
SAUDISAT 5A             
1 43831U 18102A   25024.90257391  .00010020  00000+0  45836-3 0  9991
2 43831  97.3799  91.5456 0012636 121.7323 238.5146 15.20652918338239
SAUDISAT 5B             
1 43833U 18102C   25024.91966330  .00009785  00000+0  44076-3 0  9995
2 43833  97.3865  93.7470 0013280 124.9970 235.2514 15.21181214338335
GAOFEN-10R              
1 44622U 19066A   25024.94596916  .00003837  00000+0  48689-3 0  9990
2 44622  97.9893 332.0746 0004616 349.6989  10.4128 14.82279554287061
CARTOSAT-3              
1 44804U 19081A   25024.88087532  .00008366  00000+0  39936-3 0  9998
2 44804  97.5032  87.6270 0014295 122.1212 238.1412 15.19222377286297
GAOFEN-12 01            
1 44819U 19082A   25024.88007262  .00001478  00000+0  20114-3 0  9992
2 44819  97.8185  39.5459 0001637 180.4767 179.6444 14.80209768278884
CSG-1                   
1 44873U 19092A   25024.96713936  .00001655  00000+0  21434-3 0  9997
2 44873  97.8878 210.9260 0001298  83.3669 276.7691 14.82170379276195
NEMO-HD                 
1 46277U 20061F   25024.89408960  .00013780  00000+0  44026-3 0  9999
2 46277  97.2676  88.9858 0002861  82.0049 278.1517 15.32568155243822
SENTINEL-6              
1 46984U 20086A   25024.81115841 -.00000066  00000+0 -19775-4 0  9995
2 46984  66.0417 110.9587 0007877 271.1507  88.8606 12.80929712195215
GAOFEN-12 02            
1 48079U 21026A   25023.05382629  .00001494  00000+0  19993-3 0  9997
2 48079  97.9664  19.0349 0003885 143.6252 216.5225 14.80945545206280
PLEIADES NEO 3          
1 48268U 21034A   25024.93626368  .00003267  00000+0  42169-3 0  9996
2 48268  97.8939 101.9939 0001074  89.0738 271.0598 14.81663479202391
PLEIADES NEO 4          
1 49070U 21073E   25024.90248601  .00003368  00000+0  43438-3 0  9990
2 49070  97.8937 101.9565 0001033  92.4609 267.6722 14.81679700186100
LANDSAT 9               
1 49260U 21088A   25024.90524362  .00001087  00000+0  25131-3 0  9994
2 49260  98.2073  97.5816 0001157  86.4783 273.6548 14.57124103176982
CSG-2                   
1 51444U 22008A   25024.93335059  .00001167  00000+0  15319-3 0  9996
2 51444  97.8874 210.8805 0001350  86.2205 273.9163 14.82146589161309
GAOFEN-12 03            
1 52912U 22069A   25024.91203048  .00003967  00000+0  52540-3 0  9991
2 52912  97.8885 278.5833 0002717 149.1081 211.0291 14.80455993139426
SWOT                    
1 54754U 22173A   25024.94861231  .00000189  00000+0  12979-3 0  9995
2 54754  77.6115   1.3771 0000647 156.9377 203.1804 14.00171214108028
GAOFEN-12 04            
1 57654U 23123A   25024.94903167  .00003295  00000+0  43575-3 0  9995
2 57654  97.9118 305.3358 0001752   5.9210 354.2023 14.80635812 77442
PARS 1                  
1 59065U 24039Q   25024.89358283  .00014482  00000+0  46079-3 0  9999
2 59065  97.4227 351.8847 0014026 135.7724 224.4641 15.32600393 50455
RESURS-P 4              
1 59371U 24061A   25024.95290957  .00008255  00000+0  26787-3 0  9999
2 59371  97.2143 338.5247 0001357  58.3591 301.7784 15.32205126 45929
LEGION 1                
1 59625U 24081A   25024.93999608  .00010133  00000+0  52164-3 0  9996
2 59625  97.5529 101.5459 0003693 271.6656  88.4153 15.16607171 40496
LEGION 2                
1 59626U 24081B   25024.89929687  .00010663  00000+0  55096-3 0  9997
2 59626  97.5527 101.6000 0000597 299.4414  60.6759 15.16466151 40493
ALOS-4 (DAICHI-4)       
1 60182U 24123A   25024.83000824  .00005432  00000+0  73348-3 0  9998
2 60182  97.9233 124.2989 0001426  98.3510 261.7863 14.79484578 30717
LEGION 3                
1 60452U 24146A   25024.95251487  .00010296  00000+0  51405-3 0  9993
2 60452  44.9997 235.3309 0030603 163.2975 196.8918 15.17334502 24909
LEGION 4                
1 60453U 24146B   25024.83296960  .00010425  00000+0  64310-3 0  9999
2 60453  45.0396 326.7491 0004717 290.0943  69.9426 15.10134360 23730
SENTINEL-2C             
1 60989U 24157A   25024.78126912  .00000424  00000+0  17836-3 0  9997
2 60989  98.5672 101.9724 0001009  95.5811 264.5487 14.30819978 20282
SARSAT 7 (NOAA 15)      
1 25338U 98030A   25024.84758292  .00000436  00000+0  19747-3 0  9992
2 25338  98.5500  53.1548 0010896  41.4749 318.7257 14.26865254388790
GPS BIIR-08             
1 27663U 03005A   25024.22322600  .00000098  00000+0  00000+0 0  9997
2 27663  55.0207 235.1997 0143198  49.3001  72.6850  2.00562421161103
GPS BIIR-11             
1 28190U 04009A   25024.61856316 -.00000036  00000+0  00000+0 0  9990
2 28190  55.2614 296.1772 0099696 156.2272  44.6658  2.00571544152743
GPS BIIR-13             
1 28474U 04045A   25024.37070684 -.00000085  00000+0  00000+0 0  9998
2 28474  55.3740 345.3504 0167210 299.7064 127.5483  2.00563577148221
SARSAT 10 (NOAA 18)     
1 28654U 05018A   25024.86051977  .00000457  00000+0  26618-3 0  9996
2 28654  98.8552 105.8163 0014791 151.8936 208.3038 14.13496337 14496
GPS BIIR-14M            
1 28874U 05038A   25024.48136550 -.00000032  00000+0  00000+0 0  9994
2 28874  55.3063 293.6508 0135184 288.6951 199.7934  2.00570485141635
METEOSAT-9 (MSG-2)      
1 28912U 05049B   25024.76185764  .00000139  00000+0  00000+0 0  9998
2 28912   8.1968  58.9520 0000175 218.3278 166.9727  1.00269491  1910
GOES 13                 
1 29155U 06018A   25024.72966274  .00000064  00000+0  00000+0 0  9991
2 29155   3.2050  82.6545 0065574 259.4042 272.9950  0.98829982 38221
GPS BIIR-16M            
1 29601U 06052A   25024.36664038  .00000100  00000+0  00000+0 0  9999
2 29601  55.0580 234.1882 0087884  84.1624 276.9002  2.00553950133205
GPS BIIR-17M            
1 32260U 07047A   25024.17664701 -.00000036  00000+0  00000+0 0  9994
2 32260  53.7339 101.0959 0158967  79.5664 282.2580  2.00554123126607
GPS BIIR-18M            
1 32384U 07062A   25024.23852581 -.00000036  00000+0  00000+0 0  9990
2 32384  55.4508 294.5570 0028184 154.5322  18.4698  2.00559201125307
SARSAT 12 (NOAA 19)     
1 33591U 09005A   25024.84494910  .00000392  00000+0  23341-3 0  9996
2 33591  99.0180  88.6826 0014105  30.8618 329.3380 14.13268098822670
GOES 14                 
1 35491U 09033A   25024.65985993 -.00000049  00000+0  00000+0 0  9996
2 35491   0.3611  90.4821 0001574 152.7067  10.5345  1.00275488  1491
GOES 15                 
1 36411U 10008A   25024.93799064  .00000056  00000+0  00000+0 0  9993
2 36411   0.0413 250.4259 0005541  18.9282 254.3522  1.00275755 54540
GSAT0101 (GALILEO-PFM)  
1 37846U 11060A   25024.27909543 -.00000075  00000+0  00000+0 0  9999
2 37846  57.1167 355.5516 0003619 335.3053  24.6733  1.70475846 82577
GSAT0102 (GALILEO-FM2)  
1 37847U 11060B   25021.56918912 -.00000083  00000+0  00000+0 0  9998
2 37847  57.1177 355.6251 0005357 320.5007 221.6393  1.70475446 82401
LUCH 5A                 
1 37951U 11074B   25024.64391140 -.00000033  00000+0  00000+0 0  9994
2 37951   7.4529  81.4951 0003476 200.8439 240.7575  1.00275869 47951
METEOSAT-10 (MSG-3)     
1 38552U 12035B   25024.82441160  .00000011  00000+0  00000+0 0  9993
2 38552   3.4730  61.9619 0001550 236.0206 123.3540  1.00267804 45751
SARSAT 13 (METOP-B)     
1 38771U 12049A   25024.89683241  .00000334  00000+0  17244-3 0  9996
2 38771  98.5995  82.7994 0001578  70.4709 289.6639 14.21417573641054
GPS BIIF-3              
1 38833U 12053A   25024.27182446  .00000045  00000+0  00000+0 0  9990
2 38833  53.5284 164.4326 0162807  59.5739 301.9927  2.00561309 89231
GSAT0103 (GALILEO-FM3)  
1 38857U 12055A   25021.38576726 -.00000014  00000+0  00000+0 0  9992
2 38857  55.5107 115.6070 0003928 263.6785  96.2925  1.70473510 76289
GPS BIIF-4              
1 39166U 13023A   25024.13415516 -.00000026  00000+0  00000+0 0  9990
2 39166  54.9207 289.6581 0130991  45.9068 315.2160  2.00562165 85679
INSAT-3D                
1 39216U 13038B   25024.76562472 -.00000319  00000+0  00000+0 0  9990
2 39216   0.6082  89.7862 0002737 207.2280 232.3814  1.00276558 41988
GPS BIIF-5              
1 39533U 14008A   25024.13248108  .00000056  00000+0  00000+0 0  9995
2 39533  53.6082 170.0697 0074683 221.3120 138.0945  2.00554794 79471
LUCH 5V                 
1 39727U 14023A   25024.87721280 -.00000252  00000+0  00000+0 0  9994
2 39727   3.8584  74.4129 0003656 241.9777 218.5715  1.00272459 39261
GPS BIIF-6              
1 39741U 14026A   25024.91468377 -.00000079  00000+0  00000+0 0  9990
2 39741  56.6824 351.2725 0036240 316.8675  42.8492  2.00552691 78344
GPS BIIF-7              
1 40105U 14045A   25023.99849835 -.00000032  00000+0  00000+0 0  9995
2 40105  55.0372 108.7840 0029306 118.5560 241.7666  2.00551420 75865
GSAT0201 (GALILEO 5)    
1 40128U 14050A   25021.91773075 -.00000073  00000+0  00000+0 0  9993
2 40128  49.4279 294.2494 1618105 159.6843 207.6106  1.85519754 68836
GSAT0202 (GALILEO 6)    
1 40129U 14050B   25022.71418624 -.00000064  00000+0  00000+0 0  9999
2 40129  49.4429 293.2962 1617964 160.4892 206.5354  1.85518390 71011
